COSMOS 2530 (RODNIK-S *)
1 43751U 18097A   26132.31387995  .00000067  00000+0  40759-3 0  9994
2 43751  82.5140 244.5416 0020748 114.1346 246.1907 12.42880807337832
COSMOS 2531 (RODNIK-S *)
1 43752U 18097B   26132.25654904  .00000132  00000+0  87678-3 0  9999
2 43752  82.5184 245.6237 0017806 132.0270 228.2329 12.42912597337842
COSMOS 2532 (RODNIK-S *)
1 43753U 18097C   26132.28473204  .00000146  00000+0  98389-3 0  9991
2 43753  82.5129 244.4083 0019160 134.0961 226.1699 12.42909320337816
MINXSS-2                
1 43758U 18099A   26131.77191136  .00021666  00000+0  46799-3 0  9990
2 43758  97.4547 207.0591 0007608  48.2237 311.9661 15.44513976408505
SIRION PATHFINDER-2     
1 43759U 18099B   26132.03819396  .00002842  00000+0  15899-3 0  9998
2 43759  97.4283 181.9589 0010281  70.4828 289.7514 15.14209722407151
AISTECHSAT 2            
1 43768U 18099L   26132.09839858  .00003158  00000+0  17223-3 0  9993
2 43768  97.4324 180.9272 0006240  73.7450 286.4469 15.15070841406816
FOX-1CLIFF (AO-95)      
1 43770U 18099N   26132.15053264  .00006575  00000+0  25885-3 0  9991
2 43770  97.4409 192.5483 0010437 113.6187 246.6148 15.25912798407720
RANGE-A                 
1 43773U 18099R   26132.07305454  .00003129  00000+0  18026-3 0  9997
2 43773  97.3998 175.7124 0012053 110.5211 249.7315 15.13066932407031
SNUSAT-2                
1 43782U 18099AA  26132.09686235  .00005401  00000+0  24431-3 0  9990
2 43782  97.4090 186.0460 0011727  68.0647 292.1834 15.21272005407543
SNUGLITE                
1 43784U 18099AC  26132.09626562  .00007474  00000+0  29011-3 0  9990
2 43784  97.3900 186.7494 0004235  74.6781 285.4926 15.26373933407810
ITASAT                  
1 43786U 18099AE  26132.11525735  .00003972  00000+0  19491-3 0  9995
2 43786  97.4060 184.3548 0014320 116.4697 243.8008 15.18578677407431
EAGLET-I                
1 43790U 18099AJ  26132.06991670  .00002531  00000+0  14813-3 0  9992
2 43790  97.4261 182.6976 0012844 109.0155 251.2469 15.12655934406878
ESEO                    
1 43792U 18099AL  26132.05833844  .00001691  00000+0  12593-3 0  9990
2 43792  97.3996 170.9906 0013336  96.6520 263.6225 15.04129846406372
THEA                    
1 43796U 18099AQ  26132.13768605  .00011595  00000+0  35690-3 0  9992
2 43796  97.4460 201.5121 0008336  62.4107 297.7981 15.33778153407167
ASTROCAST 0.1           
1 43798U 18099AS  26132.19764446  .00020886  00000+0  41249-3 0  9999
2 43798  97.4387 209.6409 0004010   4.2627 355.8656 15.47170774408864
JY1SAT (JO-97)          
1 43803U 18099AX  26132.13071089  .00010652  00000+0  34172-3 0  9991
2 43803  97.4155 194.8693 0006475  53.2825 306.9011 15.32491171408105
SUOMI-100               
1 43804U 18099AY  26132.12213074  .00007378  00000+0  27594-3 0  9994
2 43804  97.4213 192.6691 0011087  55.6236 304.6050 15.27569361407919
CENTAURI-1              
1 43809U 18099BD  26132.10524089  .00003461  00000+0  18317-3 0  9990
2 43809  97.4250 184.6049 0015930  94.3157 265.9896 15.15983596407033
GLOBAL-2                
1 43812U 18099BG  26132.05733116  .00002306  00000+0  15189-3 0  9992
2 43812  97.3584 170.0737 0004262 280.5549  79.5200 15.08455394406465
SEAHAWK-1               
1 43820U 18099BQ  26132.11944366  .00005277  00000+0  23251-3 0  9998
2 43820  97.3989 185.1668 0009945  80.7488 279.4873 15.22198331407041
SAUDISAT 5A             
1 43831U 18102A   26132.27416995  .00003423  00000+0  12919-3 0  9994
2 43831  97.3091 194.5529 0008050 258.3958 101.6378 15.27672177410194
SAUDISAT 5B             
1 43833U 18102C   26132.29929345  .00003192  00000+0  11966-3 0  9990
2 43833  97.3196 197.5822 0008745 261.3997  98.6252 15.27948506410311
ISAT                    
1 43879U 18111D   26132.28955714  .00050439  00000+0  63484-3 0  9996
2 43879  97.5894  64.9268 0008307  84.4256 275.7948 15.59463351405561
UWE-4                   
1 43880U 18111E   26132.26795623  .00019918  00000+0  43901-3 0  9996
2 43880  97.5858  59.0700 0010663  94.7354 265.5112 15.43903719405234
D-STAR ONE (SPARROW)    
1 43881U 18111F   26131.78948816  .00073765  00000+0  72904-3 0  9992
2 43881  97.6117  69.4569 0007742 109.3566 250.8531 15.65618178405669
JILIN-1 09              
1 43943U 19005B   26132.24408370  .00002933  00000+0  13866-3 0  9993
2 43943  97.4716 227.5272 0002034 173.7169 186.4092 15.20187720403683
JILIN-1 10              
1 43946U 19005E   26132.24675052  .00003612  00000+0  14616-3 0  9998
2 43946  97.4756 231.0684 0009226  53.6015 306.6073 15.25321128403832
EGYPTSAT-A (MISRSAT-A)  
1 44047U 19008A   26132.32693039  .00000025  00000+0  11810-4 0  9997
2 44047  98.0054 197.6180 0001330  76.3421 283.7934 14.72263618387968
