OBJECT_NAME,OBJECT_ID,EPOCH,MEAN_MOTION,ECCENTRICITY,INCLINATION,RA_OF_ASC_NODE,ARG_OF_PERICENTER,MEAN_ANOMALY,EPHEMERIS_TYPE,CLASSIFICATION_TYPE,NORAD_CAT_ID,ELEMENT_SET_NO,REV_AT_EPOCH,BSTAR,MEAN_MOTION_DOT,MEAN_MOTION_DDOT
COSMOS 2530 (RODNIK-S 16),2018-097A,2026-05-12T07:31:59.227680,12.42880807,.00207486,82.5140,244.5416,114.1346,246.1907,0,U,43751,999,33783,.40759384E-3,.67E-6,0
COSMOS 2531 (RODNIK-S 17),2018-097B,2026-05-12T06:09:25.837056,12.42912597,.00178062,82.5184,245.6237,132.0270,228.2329,0,U,43752,999,33784,.87677962E-3,.132E-5,0
COSMOS 2532 (RODNIK-S 18),2018-097C,2026-05-12T06:50:00.848256,12.42909320,.00191609,82.5129,244.4083,134.0961,226.1699,0,U,43753,999,33781,.98388888E-3,.146E-5,0
MINXSS-2,2018-099A,2026-05-11T18:31:33.141504,15.44513976,.00076089,97.4547,207.0591,48.2237,311.9661,0,U,43758,999,40850,.46798776E-3,.21666E-3,0
SIRION PATHFINDER-2,2018-099B,2026-05-12T00:54:59.958144,15.14209722,.00102818,97.4283,181.9589,70.4828,289.7514,0,U,43759,999,40715,.15899065E-3,.2842E-4,0
AISTECHSAT 2,2018-099L,2026-05-12T02:21:41.637312,15.15070841,.00062405,97.4324,180.9272,73.7450,286.4469,0,U,43768,999,40681,.1722308E-3,.3158E-4,0
FOX-1CLIFF (AO-95),2018-099N,2026-05-12T03:36:46.020096,15.25912798,.00104376,97.4409,192.5483,113.6187,246.6148,0,U,43770,999,40772,.2588491E-3,.6575E-4,0
RANGE-A,2018-099R,2026-05-12T01:45:11.912256,15.13066932,.00120537,97.3998,175.7124,110.5211,249.7315,0,U,43773,999,40703,.18026363E-3,.3129E-4,0
SNUSAT-2,2018-099AA,2026-05-12T02:19:28.907040,15.21272005,.00117272,97.4090,186.0460,68.0647,292.1834,0,U,43782,999,40754,.2443067E-3,.5401E-4,0
SNUGLITE,2018-099AC,2026-05-12T02:18:37.349568,15.26373933,.00042353,97.3900,186.7494,74.6781,285.4926,0,U,43784,999,40781,.29010676E-3,.7474E-4,0
ITASAT,2018-099AE,2026-05-12T02:45:58.235040,15.18578677,.00143203,97.4060,184.3548,116.4697,243.8008,0,U,43786,999,40743,.19490746E-3,.3972E-4,0
EAGLET-I,2018-099AJ,2026-05-12T01:40:40.802880,15.12655934,.00128443,97.4261,182.6976,109.0155,251.2469,0,U,43790,999,40687,.14812678E-3,.2531E-4,0
ESEO,2018-099AL,2026-05-12T01:24:00.441216,15.04129846,.00133361,97.3996,170.9906,96.6520,263.6225,0,U,43792,999,40637,.12592827E-3,.1691E-4,0
THEA,2018-099AQ,2026-05-12T03:18:16.074720,15.33778153,.00083367,97.4460,201.5121,62.4107,297.7981,0,U,43796,999,40716,.35690016E-3,.11595E-3,0
ASTROCAST 0.1,2018-099AS,2026-05-12T04:44:36.481344,15.47170774,.00040101,97.4387,209.6409,4.2627,355.8656,0,U,43798,999,40886,.41249081E-3,.20886E-3,0
JY1SAT (JO-97),2018-099AX,2026-05-12T03:08:13.420896,15.32491171,.00064753,97.4155,194.8693,53.2825,306.9011,0,U,43803,999,40810,.34171842E-3,.10652E-3,0
SUOMI-100,2018-099AY,2026-05-12T02:55:52.095936,15.27569361,.00110874,97.4213,192.6691,55.6236,304.6050,0,U,43804,999,40791,.27593847E-3,.7378E-4,0
CENTAURI-1,2018-099BD,2026-05-12T02:31:32.812896,15.15983596,.00159305,97.4250,184.6049,94.3157,265.9896,0,U,43809,999,40703,.18316941E-3,.3461E-4,0
GLOBAL-2,2018-099BG,2026-05-12T01:22:33.412224,15.08455394,.00042621,97.3584,170.0737,280.5549,79.5200,0,U,43812,999,40646,.15189194E-3,.2306E-4,0
SEAHAWK-1,2018-099BQ,2026-05-12T02:51:59.932224,15.22198331,.00099459,97.3989,185.1668,80.7488,279.4873,0,U,43820,999,40704,.23250873E-3,.5277E-4,0
SAUDISAT 5A,2018-102A,2026-05-12T06:34:48.283680,15.27672177,.00080505,97.3091,194.5529,258.3958,101.6378,0,U,43831,999,41019,.12918755E-3,.3423E-4,0
SAUDISAT 5B,2018-102C,2026-05-12T07:10:58.954080,15.27948506,.00087456,97.3196,197.5822,261.3997,98.6252,0,U,43833,999,41031,.11966263E-3,.3192E-4,0
ISAT,2018-111D,2026-05-12T06:56:57.736896,15.59463351,.00083074,97.5894,64.9268,84.4256,275.7948,0,U,43879,999,40556,.63483967E-3,.50439E-3,0
UWE-4,2018-111E,2026-05-12T06:25:51.418272,15.43903719,.00106633,97.5858,59.0700,94.7354,265.5112,0,U,43880,999,40523,.43901204E-3,.19918E-3,0
D-STAR ONE (SPARROW),2018-111F,2026-05-11T18:56:51.777024,15.65618178,.00077423,97.6117,69.4569,109.3566,250.8531,0,U,43881,999,40566,.72904291E-3,.73765E-3,0
JILIN-1 09,2019-005B,2026-05-12T05:51:28.831680,15.20187720,.00020348,97.4716,227.5272,173.7169,186.4092,0,U,43943,999,40368,.13865507E-3,.2933E-4,0
JILIN-1 10,2019-005E,2026-05-12T05:55:19.244928,15.25321128,.00092265,97.4756,231.0684,53.6015,306.6073,0,U,43946,999,40383,.14616126E-3,.3612E-4,0
EGYPTSAT-A (MISRSAT-A),2019-008A,2026-05-12T07:50:46.785696,14.72263618,.00013307,98.0054,197.6180,76.3421,283.7934,0,U,44047,999,38796,.11809534E-4,.25E-6,0
